[{"OBJECT_NAME":"STARLINK-36740","OBJECT_ID":"2026-026W","EPOCH":"2026-03-03T18:00:01.999296","MEAN_MOTION":15.70952134,"ECCENTRICITY":0.0001913,"INCLINATION":97.2846,"RA_OF_ASC_NODE":117.1788,"ARG_OF_PERICENTER":86.6939,"MEAN_ANOMALY":101.6771,"EPHEMERIS_TYPE":0,"CLASSIFICATION_TYPE":"U","NORAD_CAT_ID":67741,"ELEMENT_SET_NO":999,"REV_AT_EPOCH":435,"BSTAR":-0.018221,"MEAN_MOTION_DOT":-0.02004932,"MEAN_MOTION_DDOT":0},{"OBJECT_NAME":"STARLINK-36693","OBJECT_ID":"2026-026X","EPOCH":"2026-03-03T18:00:01.999296","MEAN_MOTION":15.71622766,"ECCENTRICITY":0.0001888,"INCLINATION":97.2843,"RA_OF_ASC_NODE":117.1725,"ARG_OF_PERICENTER":85.1471,"MEAN_ANOMALY":86.3678,"EPHEMERIS_TYPE":0,"CLASSIFICATION_TYPE":"U","NORAD_CAT_ID":67742,"ELEMENT_SET_NO":999,"REV_AT_EPOCH":449,"BSTAR":-0.017752,"MEAN_MOTION_DOT":-0.02008907,"MEAN_MOTION_DDOT":0},{"OBJECT_NAME":"STARLINK-36717","OBJECT_ID":"2026-026Y","EPOCH":"2026-03-03T18:00:01.999296","MEAN_MOTION":15.7372896,"ECCENTRICITY":0.0001812,"INCLINATION":97.2846,"RA_OF_ASC_NODE":117.183,"ARG_OF_PERICENTER":88.651,"MEAN_ANOMALY":113.3026,"EPHEMERIS_TYPE":0,"CLASSIFICATION_TYPE":"U","NORAD_CAT_ID":67743,"ELEMENT_SET_NO":999,"REV_AT_EPOCH":449,"BSTAR":-0.016221,"MEAN_MOTION_DOT":-0.01967514,"MEAN_MOTION_DDOT":0},{"OBJECT_NAME":"STARLINK-36692","OBJECT_ID":"2026-026Z","EPOCH":"2026-03-03T18:00:01.999296","MEAN_MOTION":15.72487315,"ECCENTRICITY":0.0001873,"INCLINATION":97.2844,"RA_OF_ASC_NODE":117.1774,"ARG_OF_PERICENTER":85.4403,"MEAN_ANOMALY":100.9593,"EPHEMERIS_TYPE":0,"CLASSIFICATION_TYPE":"U","NORAD_CAT_ID":67744,"ELEMENT_SET_NO":999,"REV_AT_EPOCH":435,"BSTAR":-0.01711,"MEAN_MOTION_DOT":-0.02008821,"MEAN_MOTION_DDOT":0},{"OBJECT_NAME":"2026-027A","OBJECT_ID":"2026-027A","EPOCH":"2026-03-03T18:27:57.869856","MEAN_MOTION":15.17570475,"ECCENTRICITY":0.0009802,"INCLINATION":97.4897,"RA_OF_ASC_NODE":191.846,"ARG_OF_PERICENTER":215.7449,"MEAN_ANOMALY":144.313,"EPHEMERIS_TYPE":0,"CLASSIFICATION_TYPE":"U","NORAD_CAT_ID":67746,"ELEMENT_SET_NO":999,"REV_AT_EPOCH":296,"BSTAR":0.00063682,"MEAN_MOTION_DOT":0.0001275,"MEAN_MOTION_DDOT":0},{"OBJECT_NAME":"2026-027B","OBJECT_ID":"2026-027B","EPOCH":"2026-03-03T18:26:05.696736","MEAN_MOTION":15.17671253,"ECCENTRICITY":0.0009922,"INCLINATION":97.4892,"RA_OF_ASC_NODE":191.8462,"ARG_OF_PERICENTER":218.2713,"MEAN_ANOMALY":141.7817,"EPHEMERIS_TYPE":0,"CLASSIFICATION_TYPE":"U","NORAD_CAT_ID":67747,"ELEMENT_SET_NO":999,"REV_AT_EPOCH":296,"BSTAR":0.00064291,"MEAN_MOTION_DOT":0.0001291,"MEAN_MOTION_DDOT":0},{"OBJECT_NAME":"2026-027C","OBJECT_ID":"2026-027C","EPOCH":"2026-03-03T19:59:07.783008","MEAN_MOTION":15.17719671,"ECCENTRICITY":0.0010269,"INCLINATION":97.4904,"RA_OF_ASC_NODE":191.9162,"ARG_OF_PERICENTER":220.5946,"MEAN_ANOMALY":139.4523,"EPHEMERIS_TYPE":0,"CLASSIFICATION_TYPE":"U","NORAD_CAT_ID":67748,"ELEMENT_SET_NO":999,"REV_AT_EPOCH":297,"BSTAR":0.00045607,"MEAN_MOTION_DOT":9.147e-5,"MEAN_MOTION_DDOT":0},{"OBJECT_NAME":"2026-027D","OBJECT_ID":"2026-027D","EPOCH":"2026-03-03T19:55:20.294400","MEAN_MOTION":15.18011723,"ECCENTRICITY":0.0009962,"INCLINATION":97.4899,"RA_OF_ASC_NODE":191.9186,"ARG_OF_PERICENTER":225.718,"MEAN_ANOMALY":134.3238,"EPHEMERIS_TYPE":0,"CLASSIFICATION_TYPE":"U","NORAD_CAT_ID":67749,"ELEMENT_SET_NO":999,"REV_AT_EPOCH":292,"BSTAR":0.00071174,"MEAN_MOTION_DOT":0.00014443,"MEAN_MOTION_DDOT":0},{"OBJECT_NAME":"2026-027E","OBJECT_ID":"2026-027E","EPOCH":"2026-03-03T19:55:23.983680","MEAN_MOTION":15.17980314,"ECCENTRICITY":0.0009168,"INCLINATION":97.4911,"RA_OF_ASC_NODE":191.9216,"ARG_OF_PERICENTER":226.6299,"MEAN_ANOMALY":133.4172,"EPHEMERIS_TYPE":0,"CLASSIFICATION_TYPE":"U","NORAD_CAT_ID":67750,"ELEMENT_SET_NO":999,"REV_AT_EPOCH":297,"BSTAR":0.00064903,"MEAN_MOTION_DOT":0.00013148,"MEAN_MOTION_DDOT":0},{"OBJECT_NAME":"2026-027F","OBJECT_ID":"2026-027F","EPOCH":"2026-03-03T19:52:53.011776","MEAN_MOTION":15.18239155,"ECCENTRICITY":0.0010339,"INCLINATION":97.491,"RA_OF_ASC_NODE":191.9244,"ARG_OF_PERICENTER":227.2447,"MEAN_ANOMALY":132.7917,"EPHEMERIS_TYPE":0,"CLASSIFICATION_TYPE":"U","NORAD_CAT_ID":67751,"ELEMENT_SET_NO":999,"REV_AT_EPOCH":297,"BSTAR":0.0010076,"MEAN_MOTION_DOT":0.00020629,"MEAN_MOTION_DDOT":0},{"OBJECT_NAME":"2026-027G","OBJECT_ID":"2026-027G","EPOCH":"2026-03-03T19:53:44.652192","MEAN_MOTION":15.18013017,"ECCENTRICITY":0.0009411,"INCLINATION":97.4905,"RA_OF_ASC_NODE":191.9216,"ARG_OF_PERICENTER":227.4765,"MEAN_ANOMALY":132.5675,"EPHEMERIS_TYPE":0,"CLASSIFICATION_TYPE":"U","NORAD_CAT_ID":67752,"ELEMENT_SET_NO":999,"REV_AT_EPOCH":297,"BSTAR":0.0006153,"MEAN_MOTION_DOT":0.00012472,"MEAN_MOTION_DDOT":0},{"OBJECT_NAME":"JIELONG-3 R/B","OBJECT_ID":"2026-027H","EPOCH":"2026-03-03T18:46:32.527488","MEAN_MOTION":15.69994038,"ECCENTRICITY":0.0232691,"INCLINATION":97.5131,"RA_OF_ASC_NODE":193.3394,"ARG_OF_PERICENTER":266.5905,"MEAN_ANOMALY":90.8717,"EPHEMERIS_TYPE":0,"CLASSIFICATION_TYPE":"U","NORAD_CAT_ID":67753,"ELEMENT_SET_NO":999,"REV_AT_EPOCH":305,"BSTAR":0.00070241,"MEAN_MOTION_DOT":0.00460027,"MEAN_MOTION_DDOT":2.3773e-6},{"OBJECT_NAME":"JIELONG-3 DEB","OBJECT_ID":"2026-027J","EPOCH":"2026-03-03T19:05:46.552416","MEAN_MOTION":15.92511302,"ECCENTRICITY":0.0161927,"INCLINATION":97.5067,"RA_OF_ASC_NODE":193.6263,"ARG_OF_PERICENTER":265.718,"MEAN_ANOMALY":92.5576,"EPHEMERIS_TYPE":0,"CLASSIFICATION_TYPE":"U","NORAD_CAT_ID":67754,"ELEMENT_SET_NO":999,"REV_AT_EPOCH":301,"BSTAR":0.0013331,"MEAN_MOTION_DOT":0.01664442,"MEAN_MOTION_DDOT":2.4436e-6},{"OBJECT_NAME":"2026-028A","OBJECT_ID":"2026-028A","EPOCH":"2026-03-03T07:37:03.601920","MEAN_MOTION":0.995242,"ECCENTRICITY":0.0042006,"INCLINATION":0.4856,"RA_OF_ASC_NODE":289.5259,"ARG_OF_PERICENTER":229.3431,"MEAN_ANOMALY":201.269,"EPHEMERIS_TYPE":0,"CLASSIFICATION_TYPE":"U","NORAD_CAT_ID":67756,"ELEMENT_SET_NO":999,"REV_AT_EPOCH":19,"BSTAR":0,"MEAN_MOTION_DOT":-4.5e-7,"MEAN_MOTION_DDOT":0},{"OBJECT_NAME":"JAM-E JAM 1","OBJECT_ID":"2026-028B","EPOCH":"2026-03-03T10:55:56.872704","MEAN_MOTION":1.00297728,"ECCENTRICITY":0.0008219,"INCLINATION":0.5076,"RA_OF_ASC_NODE":285.5715,"ARG_OF_PERICENTER":123.4127,"MEAN_ANOMALY":311.0498,"EPHEMERIS_TYPE":0,"CLASSIFICATION_TYPE":"U","NORAD_CAT_ID":67757,"ELEMENT_SET_NO":999,"REV_AT_EPOCH":6,"BSTAR":0,"MEAN_MOTION_DOT":1.4e-6,"MEAN_MOTION_DDOT":0},{"OBJECT_NAME":"KUIPER-00159","OBJECT_ID":"2026-030A","EPOCH":"2026-03-03T17:02:29.800032","MEAN_MOTION":15.35442614,"ECCENTRICITY":0.0004353,"INCLINATION":51.884,"RA_OF_ASC_NODE":247.9972,"ARG_OF_PERICENTER":30.0259,"MEAN_ANOMALY":330.0976,"EPHEMERIS_TYPE":0,"CLASSIFICATION_TYPE":"U","NORAD_CAT_ID":67764,"ELEMENT_SET_NO":999,"REV_AT_EPOCH":417,"BSTAR":0.00083688,"MEAN_MOTION_DOT":0.00028995,"MEAN_MOTION_DDOT":0},{"OBJECT_NAME":"KUIPER-00160","OBJECT_ID":"2026-030B","EPOCH":"2026-03-03T17:03:58.398048","MEAN_MOTION":15.35301692,"ECCENTRICITY":0.0004762,"INCLINATION":51.8808,"RA_OF_ASC_NODE":247.9974,"ARG_OF_PERICENTER":39.3435,"MEAN_ANOMALY":320.7896,"EPHEMERIS_TYPE":0,"CLASSIFICATION_TYPE":"U","NORAD_CAT_ID":67765,"ELEMENT_SET_NO":999,"REV_AT_EPOCH":417,"BSTAR":0.00091262,"MEAN_MOTION_DOT":0.00031523,"MEAN_MOTION_DDOT":0},{"OBJECT_NAME":"KUIPER-00177","OBJECT_ID":"2026-030C","EPOCH":"2026-03-03T18:21:34.855200","MEAN_MOTION":15.36231911,"ECCENTRICITY":7.7e-5,"INCLINATION":51.8828,"RA_OF_ASC_NODE":247.6152,"ARG_OF_PERICENTER":15.987,"MEAN_ANOMALY":344.114,"EPHEMERIS_TYPE":0,"CLASSIFICATION_TYPE":"U","NORAD_CAT_ID":67766,"ELEMENT_SET_NO":999,"REV_AT_EPOCH":418,"BSTAR":0.0008805,"MEAN_MOTION_DOT":0.00031319,"MEAN_MOTION_DDOT":0},{"OBJECT_NAME":"KUIPER-00178","OBJECT_ID":"2026-030D","EPOCH":"2026-03-03T18:40:05.869344","MEAN_MOTION":15.35239583,"ECCENTRICITY":0.0005828,"INCLINATION":51.8827,"RA_OF_ASC_NODE":247.6984,"ARG_OF_PERICENTER":30.3454,"MEAN_ANOMALY":329.7868,"EPHEMERIS_TYPE":0,"CLASSIFICATION_TYPE":"U","NORAD_CAT_ID":67767,"ELEMENT_SET_NO":999,"REV_AT_EPOCH":418,"BSTAR":0.00087197,"MEAN_MOTION_DOT":0.0003004,"MEAN_MOTION_DDOT":0},{"OBJECT_NAME":"KUIPER-00180","OBJECT_ID":"2026-030E","EPOCH":"2026-03-03T17:45:18.828000","MEAN_MOTION":15.32150061,"ECCENTRICITY":0.0014915,"INCLINATION":51.8797,"RA_OF_ASC_NODE":248.1798,"ARG_OF_PERICENTER":51.2166,"MEAN_ANOMALY":309.0149,"EPHEMERIS_TYPE":0,"CLASSIFICATION_TYPE":"U","NORAD_CAT_ID":67768,"ELEMENT_SET_NO":999,"REV_AT_EPOCH":417,"BSTAR":0.00043252,"MEAN_MOTION_DOT":0.00013318,"MEAN_MOTION_DDOT":0},{"OBJECT_NAME":"KUIPER-00197","OBJECT_ID":"2026-030F","EPOCH":"2026-03-03T19:58:11.489088","MEAN_MOTION":15.35998436,"ECCENTRICITY":0.0002203,"INCLINATION":51.8832,"RA_OF_ASC_NODE":247.3147,"ARG_OF_PERICENTER":50.1854,"MEAN_ANOMALY":309.9326,"EPHEMERIS_TYPE":0,"CLASSIFICATION_TYPE":"U","NORAD_CAT_ID":67769,"ELEMENT_SET_NO":999,"REV_AT_EPOCH":419,"BSTAR":-0.0017133,"MEAN_MOTION_DOT":-0.00060878,"MEAN_MOTION_DDOT":0},{"OBJECT_NAME":"KUIPER-00198","OBJECT_ID":"2026-030G","EPOCH":"2026-03-03T18:30:56.012832","MEAN_MOTION":15.35756465,"ECCENTRICITY":0.0002943,"INCLINATION":51.881,"RA_OF_ASC_NODE":247.6535,"ARG_OF_PERICENTER":33.9848,"MEAN_ANOMALY":326.1326,"EPHEMERIS_TYPE":0,"CLASSIFICATION_TYPE":"U","NORAD_CAT_ID":67770,"ELEMENT_SET_NO":999,"REV_AT_EPOCH":418,"BSTAR":0.0010938,"MEAN_MOTION_DOT":0.00038444,"MEAN_MOTION_DDOT":0},{"OBJECT_NAME":"KUIPER-00199","OBJECT_ID":"2026-030H","EPOCH":"2026-03-03T17:25:55.293888","MEAN_MOTION":15.34074346,"ECCENTRICITY":0.001026,"INCLINATION":51.8797,"RA_OF_ASC_NODE":248.094,"ARG_OF_PERICENTER":44.2734,"MEAN_ANOMALY":315.907,"EPHEMERIS_TYPE":0,"CLASSIFICATION_TYPE":"U","NORAD_CAT_ID":67771,"ELEMENT_SET_NO":999,"REV_AT_EPOCH":417,"BSTAR":0.00070443,"MEAN_MOTION_DOT":0.00023307,"MEAN_MOTION_DDOT":0},{"OBJECT_NAME":"KUIPER-00200","OBJECT_ID":"2026-030J","EPOCH":"2026-03-03T18:13:29.633664","MEAN_MOTION":15.36754628,"ECCENTRICITY":0.0001449,"INCLINATION":51.8807,"RA_OF_ASC_NODE":247.577,"ARG_OF_PERICENTER":209.6671,"MEAN_ANOMALY":150.4234,"EPHEMERIS_TYPE":0,"CLASSIFICATION_TYPE":"U","NORAD_CAT_ID":67772,"ELEMENT_SET_NO":999,"REV_AT_EPOCH":418,"BSTAR":0.0011038,"MEAN_MOTION_DOT":0.00040081,"MEAN_MOTION_DDOT":0}]
